GLOBALSTAR M068         
1 32266U 07048D   25171.62301302 -.00000077  00000+0  15132-3 0  9990
2 32266  51.9895 291.7842 0001678 133.6174 239.7241 12.62825242817994
GLOBALSTAR M079         
1 37188U 10054A   25171.60602052 -.00000089  00000+0  83611-4 0  9994
2 37188  52.0025 129.3767 0000447 352.7432 179.0458 12.62265166676885
GLOBALSTAR M074         
1 37189U 10054B   25171.31053608 -.00000097  00000+0  40397-4 0  9993
2 37189  52.0000 129.5997 0000527  29.1137 117.9627 12.62256953677459
GLOBALSTAR M076         
1 37190U 10054C   25171.65868341 -.00000107  00000+0 -20152-4 0  9990
2 37190  52.0014 128.7101 0000587  11.6155 159.0002 12.62263256677577
GLOBALSTAR M077         
1 37191U 10054D   25171.16459566 -.00000102  00000+0  98494-5 0  9991
2 37191  52.0075  87.0721 0000632  48.2556  96.0739 12.62268441677525
GLOBALSTAR M075         
1 37192U 10054E   25171.75149645 -.00000078  00000+0  14509-3 0  9996
2 37192  51.9919 170.6840 0000112  49.8169 122.6102 12.62265882676820
GLOBALSTAR M073         
1 37193U 10054F   25171.51371661 -.00000109  00000+0 -28592-4 0  9990
2 37193  52.0067  85.2288 0000683  38.5390 132.7045 12.62272043678252
GLOBALSTAR M083         
1 37739U 11033A   25171.88813852 -.00000099  00000+0  24052-4 0  9991
2 37739  51.9874  32.8168 0000638  81.5452 291.2112 12.62263972647684
GLOBALSTAR M088         
1 37740U 11033B   25171.62544149 -.00000096  00000+0  45631-4 0  9998
2 37740  52.0061 299.1710 0000781 125.6631 253.4146 12.62265634642831
GLOBALSTAR M091         
1 37741U 11033C   25171.55821814 -.00000100  00000+0  22726-4 0  9994
2 37741  51.9996 262.8716 0000595 161.4664 212.2685 12.62268871643611
GLOBALSTAR M085         
1 37742U 11033D   25171.89644174 -.00000088  00000+0  85975-4 0  9994
2 37742  51.9841 212.8756 0000349 198.2537 333.6735 12.62269474644653
GLOBALSTAR M081         
1 37743U 11033E   25171.09799340 -.00000087  00000+0  92792-4 0  9997
2 37743  51.9937 218.0982 0000178 212.4387 168.1168 12.62266661644219
GLOBALSTAR M089         
1 37744U 11033F   25171.40668719 -.00000082  00000+0  11934-3 0  9991
2 37744  51.9900 171.3826 0000346  41.6178 123.7161 12.62264916645093
GLOBALSTAR M084         
1 38040U 11080A   25171.34244118 -.00000107  00000+0 -15742-4 0  9990
2 38040  52.0025  38.8684 0001072  65.1446 107.1996 12.62266805623062
GLOBALSTAR M080         
1 38041U 11080B   25171.59702773 -.00000100  00000+0  23327-4 0  9994
2 38041  52.0075  39.6863 0000839 106.1820 273.2214 12.62263486623226
GLOBALSTAR M082         
1 38042U 11080C   25171.24981681 -.00000096  00000+0  44145-4 0  9999
2 38042  52.0094 356.2044 0000859 119.9929  51.4952 12.62266804624055
GLOBALSTAR M092         
1 38043U 11080D   25171.22190156 -.00000104  00000+0 -34199-5 0  9997
2 38043  52.0089  86.6651 0000637  54.8565 109.6740 12.62264356622335
GLOBALSTAR M090         
1 38044U 11080E   25171.48113867 -.00000099  00000+0  26552-4 0  9995
2 38044  52.0141 349.3370 0000726 105.5002 278.7569 12.62273667624032
GLOBALSTAR M086         
1 38045U 11080F   25171.42452286 -.00000088  00000+0  87205-4 0  9991
2 38045  51.9917 350.0258 0000881  16.8753 350.3972 12.62271651623973
GLOBALSTAR M097         
1 39072U 13005A   25171.52866582 -.00000108  00000+0 -22093-4 0  9998
2 39072  52.0046 264.2596 0000368 146.7027 213.3863 12.62272465571239
GLOBALSTAR M093         
1 39073U 13005B   25171.50231556 -.00000096  00000+0  45846-4 0  9990
2 39073  51.9808 257.6377 0000397 160.8765 199.2116 12.62265639571187
GLOBALSTAR M094         
1 39074U 13005C   25171.02727713 -.00000092  00000+0  66239-4 0  9998
2 39074  51.9926 173.4682 0000257 285.2601  74.8238 12.62262880572739
GLOBALSTAR M096         
1 39075U 13005D   25171.51554887 -.00000091  00000+0  68497-4 0  9990
2 39075  52.0050 220.5001 0000346 204.6974 155.3877 12.62265430572060
GLOBALSTAR M078         
1 39076U 13005E   25171.33073659 -.00000205  00000+0 -56545-3 0  9992
2 39076  51.9891 305.5677 0001247 154.0813 206.0116 12.62257712570316
GLOBALSTAR M095         
1 39077U 13005F   25171.67378606 -.00000105  00000+0 -42554-5 0  9996
2 39077  51.9815 301.7174 0000780 156.6005 203.4897 12.62263613570577
GLOBALSTAR M087         
1 52888U 22064A   25171.46693544 -.00000114  00000+0 -59603-4 0  9996
2 52888  52.0002  83.8138 0000492  56.3751 303.7162 12.62263523145458
